CORVUS BC1              
1 42847U 17042Y   26022.01234967  .00008267  00000+0  57985-3 0  9992
2 42847  97.3907 190.0050 0011423 225.7992 134.2298 15.05369953465093
MAKERSAT 0              
1 43016U 17073D   26021.63793588  .00037269  00000+0  11824-2 0  9996
2 43016  97.4851 263.5219 0124719  71.8267 289.6503 15.25249076444076
SIRION PATHFINDER-2     
1 43759U 18099B   26022.09913642  .00009836  00000+0  56138-3 0  9992
2 43759  97.4471  74.6198 0010511  86.5098 273.7335 15.12897010390524
CORVUS BC4              
1 43767U 18099K   26021.98237607  .00008588  00000+0  51651-3 0  9996
2 43767  97.4291  69.2106 0009662 137.6324 222.5654 15.11047781390311
SPACEBEE-7              
1 43816U 18099BL  26022.16390482  .00209284  00000+0  17042-2 0  9994
2 43816  97.4640 105.1383 0002843 331.6496  28.4610 15.70008924391846
SHIELDS 1               
1 43850U 18104B   26022.03770253  .00316783  40765-4  59136-3 0  9994
2 43850  84.9972 233.9692 0002440  31.0944 329.0484 16.00981725397060
M2 PATHFINDER           
1 45727U 20037E   26021.97466816  .00006356  00000+0  46635-3 0  9991
2 45727  97.8139 211.6027 0010066 290.6668  69.3477 15.03807471303517
NETSAT-4                
1 46504U 20068U   26022.24316269  .00019186  00000+0  50894-3 0  9993
2 46504  97.8617  19.3535 0008262 113.0262 247.1854 15.38331390293290
NETSAT-3                
1 46505U 20068V   26021.93194768  .00022926  00000+0  63555-3 0  9991
2 46505  97.8647  17.4613 0007588 125.8866 234.3083 15.36931710293170
NETSAT-1                
1 46506U 20068W   26022.22171332  .00015579  00000+0  53206-3 0  9995
2 46506  97.8708  13.6782 0006888 140.4607 219.7136 15.30386745292948
NETSAT-2                
1 46507U 20068X   26022.22620134  .00023489  00000+0  60688-3 0  9996
2 46507  97.8630  18.8571 0006119 131.1342 229.0431 15.39113965293232
WILDTRACKCUBE-SIMBA     
1 47941U 21022K   26021.89202769  .00202779  00000+0  11609-2 0  9991
2 47941  97.4025 300.0175 0005606 143.3516 216.8135 15.78247967268390
GREENCUBE (IO-117)      
1 53109U 22080E   26021.26349756 -.00000003  00000+0  00000+0 0  9995
2 53109  70.1614 349.3348 0009147 319.7233  40.2749  6.42583229 82627
SITRO-AIS 5 (KATYS)     
1 57176U 23091L   26022.26589095  .00016212  00000+0  63830-3 0  9991
2 57176  97.5272  85.0166 0011096 255.9331 104.0674 15.25647021142069
SITRO-AIS 6 (CHIRKIN)   
1 57192U 23091AC  26022.29404343  .00008428  00000+0  35408-3 0  9994
2 57192  97.5279  84.8052 0010846 255.6085 104.3948 15.23641028142055
SITRO-AIS 8 (ANOKHIN)   
1 57193U 23091AD  26022.31398083  .00017032  00000+0  63017-3 0  9999
2 57193  97.5269  86.1307 0010354 252.6220 107.3887 15.27707294142142
SITRO-AIS 7 (FARTUSHNIY)
1 57194U 23091AE  26022.33741646  .00008186  00000+0  34616-3 0  9992
2 57194  97.5277  84.7361 0010664 257.0222 102.9824 15.23430692142054
SITRO-AIS 10 (BURDAEV)  
1 57199U 23091AK  26022.29876655  .00022280  00000+0  70857-3 0  9999
2 57199  97.5281  89.8565 0006829 227.5531 132.5134 15.32599945142374
SITRO-AIS 9 (SHCHUKIN)  
1 57201U 23091AM  26022.28624838  .00022558  00000+0  72488-3 0  9996
2 57201  97.5281  89.6689 0006847 227.6340 132.4323 15.32264003142364
SITRO-AIS 12 (SMIRENNIY)
1 57204U 23091AQ  26022.30194778  .00022519  00000+0  71828-3 0  9991
2 57204  97.5291  90.0701 0006849 220.3914 139.6820 15.32502284142387
SITRO-AIS 11 (SHEFFER)  
1 57208U 23091AU  26022.28484699  .00023601  00000+0  74541-3 0  9994
2 57208  97.5289  90.2209 0006774 220.1638 139.9104 15.32808830142396
SITRO-AIS 25            
1 59066U 24039R   26022.32215873  .00009254  00000+0  73354-3 0  9991
2 59066  95.3960 134.9208 0150131 117.4073 244.2516 14.92110119102962
SITRO-AIS 26            
1 59067U 24039S   26022.30487572  .00008076  00000+0  64356-3 0  9990
2 59067  95.3959 134.8346 0150200 117.9193 243.7333 14.91932387102956
SITRO-AIS 27            
1 59068U 24039T   26022.31432706  .00009066  00000+0  71613-3 0  9995
2 59068  95.3959 135.0487 0149459 116.8075 244.8526 14.92313912102973
SITRO-AIS 28            
1 59071U 24039U   26022.29514272  .00008156  00000+0  64445-3 0  9999
2 59071  95.3961 135.0751 0149175 116.7601 244.8976 14.92350700102978
GRBBETA                 
1 60237U 24128C   26022.21428459  .00006218  00000+0  43398-3 0  9998
2 60237  61.9918   7.9128 0054633 104.4510 256.2653 15.05208452 84280
OOV-CUBE (TUBSAT-30)    
1 60240U 24128F   26022.23018722  .00004648  00000+0  35744-3 0  9993
2 60240  61.9964  14.2156 0057271 102.4861 258.2645 15.01890327 84181
ROBUSTA-3A (MEDITERRAN*)
1 60243U 24128J   26022.23094245  .00011553  00000+0  71368-3 0  9995
2 60243  61.9887   3.4503 0055017  98.5131 262.2203 15.09029454 84374
LASARSAT                
1 62391U 24247Q   26022.19814801  .00035216  00000+0  95938-3 0  9997
2 62391  44.9782 356.9377 0000754  14.6956 345.3952 15.36942683 60783
CROCUBE                 
1 62394U 24247T   26021.99826255  .00040744  00000+0  10780-2 0  9996
2 62394  44.9761 357.0674 0001890  13.8226 346.2712 15.37783597 60768
